NORAD_CAT_ID,OBJECT_NAME,OBJECT_TYPE,EPOCH,MEAN_MOTION,ECCENTRICITY,INCLINATION,RA_OF_ASC_NODE,ARG_OF_PERICENTER,MEAN_ANOMALY,BSTAR,MEAN_MOTION_DOT,MEAN_MOTION_DDOT,TLE_LINE0,TLE_LINE1,TLE_LINE2,SEMIMAJOR_AXIS,PERIOD,APOGEE,PERIGEE,DECAYED
55661.0,STARLINK-5475,PAYLOAD,2024-02-22 13:55:18,14.98329656,0.0002965,69.9985,245.6982,268.9129,91.169,-1.3644e-05,-2.56e-06,0.0,0 STARLINK-5475,1 55661U 23021AK  24053.58008028 -.00000256  00000-0 -13644-4 0  9993,2 55661  69.9985 245.6982 0002965 268.9129  91.1690 14.98329656 57524,6950.194,96.107,574.12,569.998,0.0
55661.0,STARLINK-5475,PAYLOAD,2024-02-22 21:55:58,14.98336941,0.0002915,69.9988,244.8563,272.6613,87.4212,7.0377e-05,7.47e-06,0.0,0 STARLINK-5475,1 55661U 23021AK  24053.91387300  .00000747  00000-0  70377-4 0  9992,2 55661  69.9988 244.8563 0002915 272.6613  87.4212 14.98336941 57576,6950.171,96.107,574.062,570.01,0.0
55661.0,STARLINK-5475,PAYLOAD,2024-02-23 05:56:38,14.9836782,0.0003006,69.999,244.014,275.8408,84.2409,-0.00045618,-5.537e-05,0.0,0 STARLINK-5475,1 55661U 23021AK  24054.24766308 -.00005537  00000-0 -45618-3 0  9991,2 55661  69.9990 244.0140 0003006 275.8408  84.2409 14.98367820 57327,6950.076,96.105,574.03,569.852,0.0
55661.0,STARLINK-5475,PAYLOAD,2024-02-23 13:57:19,14.98331537,0.0002632,69.9998,243.1738,270.9814,89.1044,2.6135e-05,2.19e-06,0.0,0 STARLINK-5475,1 55661U 23021AK  24054.58147506  .00000219  00000-0  26135-4 0  9995,2 55661  69.9998 243.1738 0002632 270.9814  89.1044 14.98331537 57672,6950.188,96.107,573.882,570.224,0.0
55661.0,STARLINK-5475,PAYLOAD,2024-02-23 20:21:51,14.98330159,0.0002655,70.0001,242.5006,265.3717,94.7139,1.023e-05,2.9e-07,0.0,0 STARLINK-5475,1 55661U 23021AK  24054.84851562  .00000029  00000-0  10230-4 0  9996,2 55661  70.0001 242.5006 0002655 265.3717  94.7139 14.98330159 57414,6950.192,96.107,573.903,570.212,0.0
55661.0,STARLINK-5475,PAYLOAD,2024-02-23 21:58:00,14.98325117,0.000279,69.9997,242.3312,264.9462,95.1379,-5.1553e-05,-7.08e-06,0.0,0 STARLINK-5475,1 55661U 23021AK  24054.91528062 -.00000708  00000-0 -51553-4 0  9999,2 55661  69.9997 242.3312 0002790 264.9462  95.1379 14.98325117 57728,6950.208,96.107,574.012,570.134,0.0
55661.0,STARLINK-5475,PAYLOAD,2024-02-24 13:59:20,14.98328626,0.000306,69.9991,240.6473,267.0249,93.056,-4.8471e-05,-6.71e-06,0.0,0 STARLINK-5475,1 55661U 23021AK  24055.58287892 -.00000671  00000-0 -48471-4 0  9990,2 55661  69.9991 240.6473 0003060 267.0249  93.0560 14.98328626 57827,6950.197,96.107,574.189,569.935,0.0
55661.0,STARLINK-5475,PAYLOAD,2024-02-24 18:47:45,14.98324359,0.0003265,69.9995,240.1421,269.4196,90.6589,1.3084e-05,6.3e-07,0.0,0 STARLINK-5475,1 55661U 23021AK  24055.78316002  .00000063  00000-0  13084-4 0  9993,2 55661  69.9995 240.1421 0003265 269.4196  90.6589 14.98324359 57859,6950.21,96.107,574.345,569.806,0.0
55661.0,STARLINK-5475,PAYLOAD,2024-02-25 12:25:13,14.98327325,0.000324,69.9988,238.291,267.9961,92.0827,4.4264e-05,4.35e-06,0.0,0 STARLINK-5475,1 55661U 23021AK  24056.51751695  .00000435  00000-0  44264-4 0  9993,2 55661  69.9988 238.2910 0003240 267.9961  92.0827 14.98327325 57664,6950.201,96.107,574.318,569.814,0.0
55661.0,STARLINK-5475,PAYLOAD,2024-02-25 14:01:21,14.98327309,0.000324,69.9988,238.1226,267.9891,92.0897,4.3167e-05,4.22e-06,0.0,0 STARLINK-5475,1 55661U 23021AK  24056.58427710  .00000422  00000-0  43167-4 0  9995,2 55661  69.9988 238.1226 0003240 267.9891  92.0897 14.98327309 57978,6950.201,96.107,574.318,569.814,0.0
55661.0,STARLINK-5475,PAYLOAD,2024-02-25 22:02:01,14.98329647,0.000326,69.9989,237.2811,268.2021,91.8765,4.7508e-05,4.74e-06,0.0,0 STARLINK-5475,1 55661U 23021AK  24056.91807593  .00000474  00000-0  47508-4 0  9993,2 55661  69.9989 237.2811 0003260 268.2021  91.8765 14.98329647 58025,6950.194,96.107,574.325,569.793,0.0
55661.0,STARLINK-5475,PAYLOAD,2024-02-26 12:27:14,14.98325687,0.0003224,69.9989,235.7661,268.3685,91.7105,3.0953e-05,2.76e-06,0.0,0 STARLINK-5475,1 55661U 23021AK  24057.51891980  .00000276  00000-0  30953-4 0  9999,2 55661  69.9989 235.7661 0003224 268.3685  91.7105 14.98325687 57811,6950.206,96.107,574.312,569.83,0.0
55661.0,STARLINK-5475,PAYLOAD,2024-02-26 14:03:22,14.98325414,0.0003228,69.9988,235.5978,268.3336,91.7454,2.7659e-05,2.37e-06,0.0,0 STARLINK-5475,1 55661U 23021AK  24057.58568020  .00000237  00000-0  27659-4 0  9998,2 55661  69.9988 235.5978 0003228 268.3336  91.7454 14.98325414 58126,6950.207,96.107,574.316,569.829,0.0
55661.0,STARLINK-5475,PAYLOAD,2024-02-26 22:04:03,14.9832711,0.0003225,69.9988,234.7561,268.4949,91.584,2.9912e-05,2.64e-06,0.0,0 STARLINK-5475,1 55661U 23021AK  24057.91947977  .00000264  00000-0  29912-4 0  9991,2 55661  69.9988 234.7561 0003225 268.4949  91.5840 14.98327110 58170,6950.202,96.107,574.308,569.825,0.0
55661.0,STARLINK-5475,PAYLOAD,2024-02-27 12:29:15,14.98332511,0.0003213,69.9989,233.2413,268.291,91.7881,2.3503e-05,1.87e-06,0.0,0 STARLINK-5475,1 55661U 23021AK  24058.52031660  .00000187  00000-0  23503-4 0  9996,2 55661  69.9989 233.2413 0003213 268.2910  91.7881 14.98332511 57968,6950.185,96.107,574.283,569.817,0.0
55661.0,STARLINK-5475,PAYLOAD,2024-02-27 14:05:23,14.98332811,0.000321,69.9989,233.073,268.3108,91.7684,2.6229e-05,2.2e-06,0.0,0 STARLINK-5475,1 55661U 23021AK  24058.58707620  .00000220  00000-0  26229-4 0  9994,2 55661  69.9989 233.0730 0003210 268.3108  91.7684 14.98332811 58274,6950.184,96.107,574.28,569.818,0.0
55661.0,STARLINK-5475,PAYLOAD,2024-02-27 22:06:03,14.98335357,0.0003214,69.9989,232.2311,269.0184,91.0606,4.5245e-05,4.47e-06,0.0,0 STARLINK-5475,1 55661U 23021AK  24058.92087329  .00000447  00000-0  45245-4 0  9999,2 55661  69.9989 232.2311 0003214 269.0184  91.0606 14.98335357 58327,6950.176,96.107,574.275,569.808,0.0
55661.0,STARLINK-5475,PAYLOAD,2024-02-28 12:31:16,14.98327378,0.0003058,69.9992,230.7166,268.148,91.9329,1.0403e-05,3.1e-07,0.0,0 STARLINK-5475,1 55661U 23021AK  24059.52171872  .00000031  00000-0  10403-4 0  9990,2 55661  69.9992 230.7166 0003058 268.1480  91.9329 14.98327378 58119,6950.201,96.107,574.191,569.941,0.0
55661.0,STARLINK-5475,PAYLOAD,2024-02-28 14:07:24,14.98327064,0.0003068,69.9992,230.5483,267.9537,92.1271,4.978e-06,-3.4e-07,0.0,0 STARLINK-5475,1 55661U 23021AK  24059.58847909 -.00000034  00000-0  49780-5 0  9992,2 55661  69.9992 230.5483 0003068 267.9537  92.1271 14.98327064 58425,6950.202,96.107,574.199,569.935,0.0
55661.0,STARLINK-5475,PAYLOAD,2024-02-28 20:31:56,14.98327223,0.0003069,69.9993,229.8751,268.0982,91.9826,5.3836e-06,-2.9e-07,0.0,0 STARLINK-5475,1 55661U 23021AK  24059.85551930 -.00000029  00000-0  53836-5 0  9999,2 55661  69.9993 229.8751 0003069 268.0982  91.9826 14.98327223 58466,6950.201,96.107,574.199,569.933,0.0
55661.0,STARLINK-5475,PAYLOAD,2024-02-29 12:33:17,14.98329064,0.0003083,69.9995,228.1923,269.695,90.3855,-5.3925e-05,-7.36e-06,0.0,0 STARLINK-5475,1 55661U 23021AK  24060.52312029 -.00000736  00000-0 -53925-4 0  9993,2 55661  69.9995 228.1923 0003083 269.6950  90.3855 14.98329064 58267,6950.196,96.107,574.204,569.918,0.0
55661.0,STARLINK-5475,PAYLOAD,2024-02-29 14:09:25,14.98328662,0.0003091,69.9994,228.024,269.6709,90.4095,-5.7703e-05,-7.81e-06,0.0,0 STARLINK-5475,1 55661U 23021AK  24060.58988062 -.00000781  00000-0 -57703-4 0  9993,2 55661  69.9994 228.0240 0003091 269.6709  90.4095 14.98328662 58572,6950.197,96.107,574.21,569.914,0.0
55661.0,STARLINK-5475,PAYLOAD,2024-02-29 20:33:57,14.98329025,0.0003116,69.9995,227.3506,269.8262,90.254,-4.9939e-05,-6.89e-06,0.0,0 STARLINK-5475,1 55661U 23021AK  24060.85692031 -.00000689  00000-0 -49939-4 0  9990,2 55661  69.9995 227.3506 0003116 269.8262  90.2540 14.98329025 58616,6950.196,96.107,574.227,569.895,0.0
55661.0,STARLINK-5475,PAYLOAD,2024-03-01 14:11:26,14.98331472,0.0003232,69.9993,225.4983,269.8832,90.1957,6.8568e-05,7.25e-06,0.0,0 STARLINK-5475,1 55661U 23021AK  24061.59127470  .00000725  00000-0  68568-4 0  9990,2 55661  69.9993 225.4983 0003232 269.8832  90.1957 14.98331472 58726,6950.188,96.107,574.3,569.807,0.0
55661.0,STARLINK-5475,PAYLOAD,2024-03-01 20:35:58,14.98336119,0.0003232,69.9994,224.8251,270.1732,89.9056,8.3789e-05,9.07e-06,0.0,0 STARLINK-5475,1 55661U 23021AK  24061.85831074  .00000907  00000-0  83789-4 0  9995,2 55661  69.9994 224.8251 0003232 270.1732  89.9056 14.98336119 58462,6950.174,96.107,574.285,569.793,0.0
55661.0,STARLINK-5475,PAYLOAD,2024-03-02 14:13:27,14.98324713,0.0003183,69.9996,222.9736,270.1071,89.9723,-3.3673e-06,-1.33e-06,0.0,0 STARLINK-5475,1 55661U 23021AK  24062.59268040 -.00000133  00000-0 -33673-5 0  9995,2 55661  69.9996 222.9736 0003183 270.1071  89.9723 14.98324713 58875,6950.209,96.107,574.286,569.862,0.0
55661.0,STARLINK-5475,PAYLOAD,2024-03-02 19:01:51,14.9832976,0.0003162,69.9996,222.4686,270.266,89.8137,2.5696e-05,2.14e-06,0.0,0 STARLINK-5475,1 55661U 23021AK  24062.79295666  .00000214  00000-0  25696-4 0  9994,2 55661  69.9996 222.4686 0003162 270.2660  89.8137 14.98329760 58602,6950.194,96.107,574.256,569.861,0.0
55661.0,STARLINK-5475,PAYLOAD,2024-03-02 20:37:59,14.98329804,0.0003162,69.9996,222.3003,270.2885,89.7911,2.5443e-05,2.11e-06,0.0,0 STARLINK-5475,1 55661U 23021AK  24062.85971662  .00000211  00000-0  25443-4 0  9995,2 55661  69.9996 222.3003 0003162 270.2885  89.7911 14.98329804 58915,6950.193,96.107,574.256,569.861,0.0
55661.0,STARLINK-5475,PAYLOAD,2024-03-03 12:39:20,14.98330821,0.0003046,70.0,220.617,270.6282,89.4528,-6.3131e-05,-8.46e-06,0.0,0 STARLINK-5475,1 55661U 23021AK  24063.52731890 -.00000846  00000-0 -63131-4 0  9999,2 55661  70.0000 220.6170 0003046 270.6282  89.4528 14.98330821 59010,6950.19,96.107,574.172,569.938,0.0
55661.0,STARLINK-5475,PAYLOAD,2024-03-03 20:40:00,14.98333189,0.0002926,70.0005,219.7764,268.9487,91.1336,-2.8198e-05,-4.29e-06,0.0,0 STARLINK-5475,1 55661U 23021AK  24063.86111630 -.00000429  00000-0 -28198-4 0  9991,2 55661  70.0005 219.7764 0002926 268.9487  91.1336 14.98333189 59068,6950.183,96.107,574.082,570.014,0.0
